111P/Helin-Roman-Crockett,e,4.2285,89.7671,1.9580,4.139070,0.1170442,0.10563015,124.7678,12/22.0/2015,2000,g  5.0,8.0
# From MPC 69910
112P/Urata-Niijima,e,24.2048,31.9097,21.3940,3.530295,0.1485893,0.58782331,135.3812,12/22.0/2015,2000,g 14.0,6.0
# From MPC 92984
113P/Spitaler,e,5.7763,14.3791,50.0696,3.684266,0.1393727,0.42482466,33.7458,12/22.0/2015,2000,g 13.5,4.0
# From MPC 82722
114P/Wiseman-Skiff,e,18.2813,271.0611,172.8722,3.543623,0.1477518,0.55486721,140.7217,12/22.0/2015,2000,g 11.5,6.0
# From MPC 76027
115P/Maury,e,11.6714,176.0494,121.0925,4.271742,0.1116340,0.51771623,171.9977,12/22.0/2015,2000,g 10.5,6.0
# From MPC 94284
116P/Wild,e,3.6086,20.9887,173.3164,3.485247,0.1514795,0.37247138,356.8913,12/22.0/2015,2000,g  2.5,10.0
# From MPC 95735
117P/Helin-Roman-Alu,e,8.6982,58.8776,222.5864,4.094954,0.1189407,0.25397544,75.5630,12/22.0/2015,2000,g  2.5,8.0
# From MPC 95735
118P/Shoemaker-Levy,e,8.5143,151.7276,302.3245,3.462893,0.1529486,0.42819731,332.7853,12/22.0/2015,2000,g 12.0,4.0
# From MPC 84628
119P/Parker-Hartley,e,5.1901,243.2243,182.1434,4.294310,0.1107552,0.29734538,69.4297,12/22.0/2015,2000,g  3.5,8.0
# From MPC 80901
120P/Mueller,e,8.8811,3.8741,29.3311,4.106950,0.1184200,0.34614158,122.3139,12/22.0/2015,2000,g 12.0,4.0
# From MPC 75718
121P/Shoemaker-Holt,e,20.1530,94.1555,11.6506,4.594878,0.1000675,0.18348975,84.2109,12/22.0/2015,2000,g  6.5,8.0
# From MPC 75718
122P/de Vico,e,85.2526,79.5884,13.0425,17.66519,0.0132748,0.96265690,97.8934,12/22.0/2015,2000,g  7.5,5.2
# From MPC 79345
123P/West-Hartley,e,15.3554,46.5201,102.9340,3.860388,0.1299444,0.44928691,211.8080,12/22.0/2015,2000,g  4.0,10.0
# From MPC 87068
124P/Mrkos,e,31.5321,0.4027,183.7617,3.318016,0.1630746,0.50401549,101.3129,12/22.0/2015,2000,g 13.5,2.8
# From MPC 94676
125P/Spacewatch,e,9.9881,153.1963,87.1399,3.125424,0.1783778,0.51282797,185.1267,12/22.0/2015,2000,g 13.0,6.0
# From MPC 66205
126P/IRAS,e,45.7766,357.8196,356.6639,5.642217,0.0735410,0.69517156,156.8599,12/22.0/2015,2000,g  6.0,8.0
# From MPC 84321
127P/Holt-Olmstead,e,14.3024,13.6496,6.7091,3.450381,0.1537813,0.36068429,346.6494,12/22.0/2015,2000,g 11.0,6.0
# From MPC 75719
128P-B/Shoemaker-Holt,e,4.3637,214.2956,210.5788,4.503611,0.1031247,0.32150848,320.2184,12/22.0/2015,2000,g  8.5,4.0
# From MPC 82322
129P/Shoemaker-Levy,e,3.4443,184.8953,308.9711,4.276852,0.1114340,0.08498998,76.1358,12/22.0/2015,2000,g 11.0,4.0
# From MPC 78188
130P/McNaught-Hughes,e,6.0325,71.8239,243.6935,3.400753,0.1571598,0.46348155,240.9479,12/22.0/2015,2000,g 10.0,6.0
# From MPC 76027
131P/Mueller,e,7.3546,214.1969,179.1632,3.678689,0.1396897,0.34276047,202.1534,12/22.0/2015,2000,g 11.0,4.0
# From MPC 92985
132P/Helin-Roman-Alu,e,5.8272,178.1705,221.3158,4.089834,0.1191641,0.53554795,68.8405,12/22.0/2015,2000,g 11.0,6.0
# From MPC 94676
133P/Elst-Pizarro,e,1.3872,160.1395,131.9780,3.159840,0.1754715,0.16065975,183.8346,12/22.0/2015,2000,g 15.4,2.0
# From MPC 89012
134P/Kowal-Vavrova,e,4.3489,202.0978,18.6289,6.239198,0.0632428,0.58787246,36.6403,12/22.0/2015,2000,g 11.5,4.0
# From MPC 92985
135P/Shoemaker-Levy,e,6.0616,213.0900,21.9852,3.803532,0.1328689,0.29547431,55.1771,12/22.0/2015,2000,g  7.0,8.0
# From MPC 84321
136P/Mueller,e,9.4161,137.4532,225.1886,4.203130,0.1143786,0.29122907,341.5510,12/22.0/2015,2000,g 11.0,4.0
# From MPC 75719
137P/Shoemaker-Levy,e,4.8503,233.0736,140.9862,4.517839,0.1026379,0.57204937,248.3214,12/22.0/2015,2000,g 11.0,4.0
# From MPC 65938
138P/Shoemaker-Levy,e,10.0843,309.3746,95.6024,3.622159,0.1429726,0.52963064,184.3653,12/22.0/2015,2000,g 15.0,6.0
# From MPC 89012
139P/Vaisala-Oterma,e,2.3326,242.2457,166.1706,4.528876,0.1022630,0.24647627,286.3107,12/22.0/2015,2000,g  9.5,4.0
# From MPC 92985
140P/Bowell-Skiff,e,3.8211,343.3943,172.9269,6.449923,0.0601689,0.69182630,8.1470,12/22.0/2015,2000,g 11.5,6.0
# From MPC 94284
141P/Machholz,e,12.8089,246.0099,149.4999,3.022054,0.1876077,0.74819413,22.3176,12/22.0/2015,2000,g 12.0,12.0
# From MPC 71683
142P/Ge-Wang,e,12.3461,176.4727,175.2298,4.949614,0.0895050,0.49955930,182.3426,12/22.0/2015,2000,g  8.5,6.0
# From MPC 94676
143P/Kowal-Mrkos,e,4.6939,245.3047,320.8211,4.294781,0.1107369,0.40983052,263.9417,12/22.0/2015,2000,g 13.5,2.0
# From MPC 84321
144P/Kushida,e,4.1146,245.4952,216.1387,3.858105,0.1300598,0.62897890,327.1008,12/22.0/2015,2000,g  8.5,8.0
# From MPC 75720
145P/Shoemaker-Levy,e,11.2605,26.8208,10.4129,4.143765,0.1168453,0.54075032,287.6753,12/22.0/2015,2000,g 13.5,4.0
# From MPC 75720
146P/Shoemaker-LINEAR,e,23.0736,53.4575,316.9878,4.039501,0.1213983,0.64598428,336.7951,12/22.0/2015,2000,g 15.0,4.0
# From MPC 75720
147P/Kushida-Muramatsu,e,2.3689,93.7310,347.0606,3.800274,0.1330399,0.27726681,350.9782,12/22.0/2015,2000,g 14.0,4.0
# From MPC 89730
148P/Anderson-LINEAR,e,3.6817,89.7690,6.7001,3.675586,0.1398666,0.53971590,26.7455,12/22.0/2015,2000,g 16.0,2.0
# From MPC 75720
149P/Mueller,e,29.7654,145.2664,43.5868,4.321726,0.1097029,0.38968033,233.5601,12/22.0/2015,2000,g  8.0,8.0
# From MPC 75720
150P/LONEOS,e,18.5068,272.4297,245.6762,3.883143,0.1288039,0.54682113,332.1854,12/22.0/2015,2000,g 13.5,4.0
# From MPC 95214
151P/Helin,e,4.7196,143.1554,216.2627,5.781245,0.0709042,0.57210779,5.3132,12/22.0/2015,2000,g 10.0,6.0
# From MPC 79346
152P/Helin-Lawrence,e,9.8698,91.8855,163.5372,4.491362,0.1035469,0.30758750,130.6224,12/22.0/2015,2000,g 11.5,4.0
# From MPC 46101
153P/Ikeya-Zhang,e,28.1153,93.4117,34.6409,51.17316,0.0026924,0.99015709,0.0000,03/22.5703/2002,2000,g  7.0,4.0
# From MPC 87068
154P/Brewington,e,17.9271,343.4346,48.3627,4.852690,0.0921999,0.67437804,68.0682,12/22.0/2015,2000,g  2.5,12.0
# From MPC 75720
155P/Shoemaker,e,6.4013,97.2677,14.7040,6.583924,0.0583414,0.72725739,276.9588,12/22.0/2015,2000,g 10.0,4.8
# From MPC 92985
156P/Russell-LINEAR,e,20.8272,38.7719,357.8957,3.593167,0.1447065,0.56020993,88.8612,12/22.0/2015,2000,g 15.5,2.0
# From MPC 95214
157P/Tritton,e,7.2850,300.0025,148.8875,3.409001,0.1565898,0.60162480,333.1686,12/22.0/2015,2000,g 10.0,4.0
# From MPC 76027
158P/Kowal-LINEAR,e,7.9068,137.2746,239.5733,4.737002,0.0955980,0.03038458,106.7148,12/22.0/2015,2000,g  9.0,4.0
# From MPC 75721
159P/LONEOS,e,23.4601,55.0478,4.8661,5.860551,0.0694699,0.38188312,298.6364,12/22.0/2015,2000,g 10.0,4.0
# From MPC 80901
160P/LINEAR,e,17.4654,335.5131,12.2014,3.727690,0.1369444,0.54400593,161.9935,12/22.0/2015,2000,g 15.5,2.0
# From MPC 75721
161P/Hartley-IRAS,e,95.5810,1.2339,46.9632,7.720113,0.0459482,0.83572747,176.3447,12/22.0/2015,2000,g  8.5,6.0
# From MPC 92985
162P/Siding Spring,e,27.7862,31.2113,356.4191,3.056422,0.1844523,0.59513441,30.0662,12/22.0/2015,2000,g 12.0,4.0
# From MPC 78188
163P/NEAT,e,12.7164,102.1100,349.8042,3.766724,0.1348212,0.45259151,181.7815,12/22.0/2015,2000,g 14.5,4.0
# From MPC 94676
164P/Christensen,e,16.2591,88.3119,325.9930,3.658663,0.1408382,0.53984192,234.4539,12/22.0/2015,2000,g 11.0,4.0
# From MPC 75721
165P/LINEAR,e,15.9043,0.5097,126.3322,17.89206,0.0130231,0.61824766,73.7820,12/22.0/2015,2000,g 11.5,2.0
# From MPC 75722
166P/NEAT,e,15.3609,64.4666,322.2153,13.90181,0.0190150,0.37982402,94.5353,12/22.0/2015,2000,g  5.5,4.0
# From MPC 75722
167P/CINEOS,e,19.1033,295.8557,343.5434,16.15410,0.0151803,0.27129474,81.5831,12/22.0/2015,2000,g  9.5,2.0
# From MPC 82322
168P/Hergenrother,e,22.0022,356.4013,13.7254,3.612016,0.1435753,0.61144371,168.8171,12/22.0/2015,2000,g 15.5,4.0
# From MPC 94676
169P/NEAT,e,11.2979,176.1188,218.0193,2.604311,0.2345119,0.76701227,158.2415,12/22.0/2015,2000,g 16.0,2.0
# From MPC 89012
170P/Christensen,e,10.1279,142.9199,225.8226,4.197730,0.1145994,0.30416184,52.7285,12/22.0/2015,2000,g 12.0,4.0
# From MPC 79024
171P/Spahr,e,21.9468,101.7129,347.2138,3.555796,0.1469937,0.50244796,195.5950,12/22.0/2015,2000,g 13.5,4.0
# From MPC 93588
172P/Yeung,e,11.2144,30.9526,208.7954,4.224265,0.1135213,0.21013612,309.4657,12/22.0/2015,2000,g 13.0,4.0
# From MPC 75722
173P/Mueller,e,16.5047,100.4748,29.5862,5.690303,0.0726108,0.26204626,201.2157,12/22.0/2015,2000,g  7.5,4.0
# From MPC 92985
174P/Echeclus,e,4.3444,173.3349,162.8936,10.68055,0.0282367,0.45537845,6.8881,12/22.0/2015,2000,g  9.4,2.0
# From MPC 84321
175P/Hergenrother,e,6.0777,123.5840,56.0459,3.429453,0.1551911,0.43259486,146.1867,12/22.0/2015,2000,g 14.0,4.0
# From MPC 88331
176P/LINEAR,e,0.2348,345.9561,35.4729,3.195066,0.1725776,0.19276295,282.9418,12/22.0/2015,2000,g 15.1,2.0
# From MPC 75723
177P/Barnard,e,31.1398,272.0144,60.6805,24.42648,0.0081642,0.95407463,27.8233,12/22.0/2015,2000,g 15.0,4.0
# From MPC 87068
178P/Hug-Bell,e,10.9691,103.4745,296.6930,3.662065,0.1406420,0.47468245,124.0545,12/22.0/2015,2000,g 13.5,4.0
# From MPC 75723
179P/Jedicke,e,19.8653,115.5702,296.3424,5.942530,0.0680373,0.30585766,200.2729,12/22.0/2015,2000,g  2.5,8.0
# From MPC 92276
180P/NEAT,e,16.8697,84.5811,94.8734,3.860123,0.1299578,0.35511772,1.2062,12/22.0/2015,2000,g 11.0,4.0
# From MPC 89012
181P/Shoemaker-Levy,e,17.0736,36.9781,334.6079,3.851773,0.1303806,0.70788499,72.9146,12/22.0/2015,2000,g 11.5,4.0
# From MPC 88331
182P/LONEOS,e,16.2397,72.8119,53.8553,2.962342,0.1933087,0.65968834,267.8712,12/22.0/2015,2000,g 18.0,4.0
# From NK 2735
183P/Korlevic-Juric,e,18.7540,5.8440,161.0461,4.486945,0.1036998,0.13660330,288.5585,12/22.0/2015,2000,g 12.5,2.0
# From MPC 86232
184P/Lovas,e,3.5299,177.1552,182.0690,3.663851,0.1405392,0.60229568,120.5393,12/22.0/2015,2000,g 13.5,4.0
# From MPC 94676
185P/Petriew,e,13.9944,214.0990,181.9281,3.100650,0.1805198,0.69868095,221.3792,12/22.0/2015,2000,g 15.0,4.0
# From MPC 75723
186P/Garradd,e,28.5135,327.3081,285.5712,4.979066,0.0887120,0.12123628,249.3199,12/22.0/2015,2000,g  7.5,4.0
# From MPC 75724
187P/LINEAR,e,13.6288,110.8388,135.3272,4.578124,0.1006173,0.15761241,268.7991,12/22.0/2015,2000,g  9.0,4.0
# From MPC 75724
188P/LINEAR-Mueller,e,10.5115,358.9816,26.8168,4.382792,0.1074182,0.41485781,314.5405,12/22.0/2015,2000,g 11.5,4.0
# From NK 2724
